BEIJING 1               
1 28890U 05043A   26065.32216531  .00000270  00000+0  61626-4 0  9994
2 28890  98.2727 198.0643 0013465 241.4987 118.4859 14.63455753 85607
HUANJING 1A (HJ-1A)     
1 33320U 08041A   26065.26324486  .00002879  00000+0  35323-3 0  9992
2 33320  97.6627  55.1359 0020518 114.0440 246.2925 14.83708758943140
HUANJING 1B (HJ-1B)     
1 33321U 08041B   26065.25511034  .00001564  00000+0  19609-3 0  9998
2 33321  97.6474  58.6006 0036801 158.9265 201.3476 14.83091871943157
YAOGAN-4                
1 33446U 08061A   26065.27884999  .00001968  00000+0  24849-3 0  9993
2 33446  97.9249 359.6054 0015513  49.6009 310.6555 14.82965928930413
DEIMOS-1                
1 35681U 09041A   26065.28877786  .00001220  00000+0  18801-3 0  9994
2 35681  97.7249 227.0549 0002108 122.7754 237.3659 14.75109934891715
UK-DMC 2                
1 35683U 09041C   26065.31386189  .00000877  00000+0  13502-3 0  9992
2 35683  97.8649 202.9078 0001084  92.0402 268.0932 14.75841251891396
DMC3-FM1                
1 40715U 15032A   26065.29330810  .00000348  00000+0  46162-4 0  9990
2 40715  97.6617 294.4165 0006653  42.4019 317.7710 14.85605022574630
DMC3-FM2                
1 40716U 15032B   26065.24829786  .00000933  00000+0  11367-3 0  9999
2 40716  97.6671 295.8761 0007228  46.5229 313.6587 14.85609546574626
DMC3-FM3                
1 40717U 15032C   26065.27137019  .00001403  00000+0  16803-3 0  9997
2 40717  97.6726 297.5846 0006547  47.8167 312.3604 14.85610877574635
