[{"OBJECT_NAME":"BEIJING 1","OBJECT_ID":"2005-043A","EPOCH":"2026-03-06T07:43:55.082784","MEAN_MOTION":14.63455753,"ECCENTRICITY":0.00134657,"INCLINATION":98.2727,"RA_OF_ASC_NODE":198.0643,"ARG_OF_PERICENTER":241.4987,"MEAN_ANOMALY":118.4859,"EPHEMERIS_TYPE":0,"CLASSIFICATION_TYPE":"U","NORAD_CAT_ID":28890,"ELEMENT_SET_NO":999,"REV_AT_EPOCH":8560,"BSTAR":6.1626272e-5,"MEAN_MOTION_DOT":2.7e-6,"MEAN_MOTION_DDOT":0},{"OBJECT_NAME":"HUANJING 1A (HJ-1A)","OBJECT_ID":"2008-041A","EPOCH":"2026-03-06T06:19:04.355904","MEAN_MOTION":14.83708758,"ECCENTRICITY":0.00205189,"INCLINATION":97.6627,"RA_OF_ASC_NODE":55.1359,"ARG_OF_PERICENTER":114.044,"MEAN_ANOMALY":246.2925,"EPHEMERIS_TYPE":0,"CLASSIFICATION_TYPE":"U","NORAD_CAT_ID":33320,"ELEMENT_SET_NO":999,"REV_AT_EPOCH":94314,"BSTAR":0.0003532307,"MEAN_MOTION_DOT":2.879e-5,"MEAN_MOTION_DDOT":0},{"OBJECT_NAME":"HUANJING 1B (HJ-1B)","OBJECT_ID":"2008-041B","EPOCH":"2026-03-06T06:07:21.533376","MEAN_MOTION":14.83091871,"ECCENTRICITY":0.00368013,"INCLINATION":97.6474,"RA_OF_ASC_NODE":58.6006,"ARG_OF_PERICENTER":158.9265,"MEAN_ANOMALY":201.3476,"EPHEMERIS_TYPE":0,"CLASSIFICATION_TYPE":"U","NORAD_CAT_ID":33321,"ELEMENT_SET_NO":999,"REV_AT_EPOCH":94315,"BSTAR":0.0001960866,"MEAN_MOTION_DOT":1.564e-5,"MEAN_MOTION_DDOT":0},{"OBJECT_NAME":"YAOGAN-4","OBJECT_ID":"2008-061A","EPOCH":"2026-03-06T06:41:32.639136","MEAN_MOTION":14.82965928,"ECCENTRICITY":0.00155136,"INCLINATION":97.9249,"RA_OF_ASC_NODE":359.6054,"ARG_OF_PERICENTER":49.6009,"MEAN_ANOMALY":310.6555,"EPHEMERIS_TYPE":0,"CLASSIFICATION_TYPE":"U","NORAD_CAT_ID":33446,"ELEMENT_SET_NO":999,"REV_AT_EPOCH":93041,"BSTAR":0.00024849406,"MEAN_MOTION_DOT":1.968e-5,"MEAN_MOTION_DDOT":0},{"OBJECT_NAME":"DEIMOS-1","OBJECT_ID":"2009-041A","EPOCH":"2026-03-06T06:55:50.407104","MEAN_MOTION":14.75109934,"ECCENTRICITY":0.00021088,"INCLINATION":97.7249,"RA_OF_ASC_NODE":227.0549,"ARG_OF_PERICENTER":122.7754,"MEAN_ANOMALY":237.3659,"EPHEMERIS_TYPE":0,"CLASSIFICATION_TYPE":"U","NORAD_CAT_ID":35681,"ELEMENT_SET_NO":999,"REV_AT_EPOCH":89171,"BSTAR":0.00018801471,"MEAN_MOTION_DOT":1.22e-5,"MEAN_MOTION_DDOT":0},{"OBJECT_NAME":"UK-DMC 2","OBJECT_ID":"2009-041C","EPOCH":"2026-03-06T07:31:57.667296","MEAN_MOTION":14.75841251,"ECCENTRICITY":0.00010848,"INCLINATION":97.8649,"RA_OF_ASC_NODE":202.9078,"ARG_OF_PERICENTER":92.0402,"MEAN_ANOMALY":268.0932,"EPHEMERIS_TYPE":0,"CLASSIFICATION_TYPE":"U","NORAD_CAT_ID":35683,"ELEMENT_SET_NO":999,"REV_AT_EPOCH":89139,"BSTAR":0.00013501517,"MEAN_MOTION_DOT":8.77e-6,"MEAN_MOTION_DDOT":0},{"OBJECT_NAME":"DMC3-FM1","OBJECT_ID":"2015-032A","EPOCH":"2026-03-06T07:02:21.819840","MEAN_MOTION":14.85605022,"ECCENTRICITY":0.00066537,"INCLINATION":97.6617,"RA_OF_ASC_NODE":294.4165,"ARG_OF_PERICENTER":42.4019,"MEAN_ANOMALY":317.771,"EPHEMERIS_TYPE":0,"CLASSIFICATION_TYPE":"U","NORAD_CAT_ID":40715,"ELEMENT_SET_NO":999,"REV_AT_EPOCH":57463,"BSTAR":4.6162028e-5,"MEAN_MOTION_DOT":3.48e-6,"MEAN_MOTION_DDOT":0},{"OBJECT_NAME":"DMC3-FM2","OBJECT_ID":"2015-032B","EPOCH":"2026-03-06T05:57:32.935104","MEAN_MOTION":14.85609546,"ECCENTRICITY":0.00072284,"INCLINATION":97.6671,"RA_OF_ASC_NODE":295.8761,"ARG_OF_PERICENTER":46.5229,"MEAN_ANOMALY":313.6587,"EPHEMERIS_TYPE":0,"CLASSIFICATION_TYPE":"U","NORAD_CAT_ID":40716,"ELEMENT_SET_NO":999,"REV_AT_EPOCH":57462,"BSTAR":0.00011366786,"MEAN_MOTION_DOT":9.33e-6,"MEAN_MOTION_DDOT":0},{"OBJECT_NAME":"DMC3-FM3","OBJECT_ID":"2015-032C","EPOCH":"2026-03-06T06:30:46.384416","MEAN_MOTION":14.85610877,"ECCENTRICITY":0.00065479,"INCLINATION":97.6726,"RA_OF_ASC_NODE":297.5846,"ARG_OF_PERICENTER":47.8167,"MEAN_ANOMALY":312.3604,"EPHEMERIS_TYPE":0,"CLASSIFICATION_TYPE":"U","NORAD_CAT_ID":40717,"ELEMENT_SET_NO":999,"REV_AT_EPOCH":57463,"BSTAR":0.00016802511,"MEAN_MOTION_DOT":1.403e-5,"MEAN_MOTION_DDOT":0}]
